OBJECT_NAME,OBJECT_ID,EPOCH,MEAN_MOTION,ECCENTRICITY,INCLINATION,RA_OF_ASC_NODE,ARG_OF_PERICENTER,MEAN_ANOMALY,EPHEMERIS_TYPE,CLASSIFICATION_TYPE,NORAD_CAT_ID,ELEMENT_SET_NO,REV_AT_EPOCH,BSTAR,MEAN_MOTION_DOT,MEAN_MOTION_DDOT
ONEWEB-0198,2021-031G,2026-07-18T04:57:34.198848,13.14503177,.00024952,87.8957,283.5288,98.3857,261.7555,0,U,48216,999,25256,.2087449E-3,.9E-6,0
ONEWEB-0189,2021-031H,2026-07-18T05:15:38.529216,13.14502716,.00024288,87.8968,283.5155,100.5793,259.5610,0,U,48217,999,25230,.76249477E-3,.295E-5,0
ONEWEB-0196,2021-031J,2026-07-18T04:43:40.056960,13.14502843,.00022043,87.8965,283.5288,97.8534,262.2846,0,U,48218,999,25230,-.26609243E-3,-.86E-6,0
ONEWEB-0183,2021-031K,2026-07-18T04:07:07.686336,13.14502539,.00019366,87.8968,283.5312,94.5728,265.5623,0,U,48219,999,25239,-.19604182E-4,.6E-7,0
ONEWEB-0185,2021-031L,2026-07-18T04:44:46.777632,13.14503781,.00021591,87.8975,283.5224,87.8647,272.2730,0,U,48220,999,25232,-.39137815E-3,-.132E-5,0
ONEWEB-0187,2021-031M,2026-07-18T04:16:03.309312,13.14502663,.00021771,87.8968,283.5394,95.5003,264.6375,0,U,48221,999,25233,-.37910561E-3,-.128E-5,0
ONEWEB-0192,2021-031N,2026-07-17T18:24:49.905792,13.14502792,.00021211,87.8967,283.6111,100.9585,259.1784,0,U,48222,999,25219,.45836504E-3,.183E-5,0
ONEWEB-0219,2021-031P,2026-07-18T04:52:46.681248,13.14504090,.00022666,87.8971,283.5175,93.4708,266.6681,0,U,48223,999,25245,-.20102195E-3,-.62E-6,0
ONEWEB-0202,2021-031Q,2026-07-18T04:25:24.233664,13.14502955,.00027429,87.8968,283.5341,105.1047,255.0386,0,U,48224,999,25243,-.57435364E-3,-.2E-5,0
ONEWEB-0204,2021-031R,2026-07-18T05:14:29.232960,13.14503197,.0001748,87.8966,283.5212,89.9597,270.1733,0,U,48225,999,25233,.67582135E-3,.263E-5,0
ONEWEB-0205,2021-031S,2026-07-18T04:39:05.612544,13.14503216,.00022943,87.8971,283.5218,94.7526,265.3866,0,U,48226,999,25234,-.33814527E-3,-.113E-5,0
ONEWEB-0206,2021-031T,2026-07-18T04:00:16.449120,13.14502048,.0001924,87.8972,283.5268,101.3894,258.7452,0,U,48227,999,25229,.14717271E-3,.67E-6,0
ONEWEB-0182,2021-031U,2026-07-18T03:53:24.382464,13.14504038,.00018898,87.8967,283.5345,94.5069,265.6277,0,U,48228,999,25250,.21804962E-3,.94E-6,0
ONEWEB-0186,2021-031V,2026-07-18T04:09:24.334848,13.14503280,.00021233,87.8978,283.5255,96.0182,264.1190,0,U,48229,999,25245,-.19898919E-3,-.61E-6,0
ONEWEB-0181,2021-031W,2026-07-18T05:27:02.128608,13.14502298,.00022643,87.8956,283.5391,97.8889,262.2498,0,U,48230,999,25231,.74475285E-3,.289E-5,0
ONEWEB-0188,2021-031X,2026-07-18T04:32:14.347680,13.14503001,.00020808,87.8959,283.5462,96.9242,263.2124,0,U,48231,999,25221,-.38413087E-3,-.13E-5,0
ONEWEB-0220,2021-031Y,2026-07-18T03:39:45.828864,13.14494473,.00021797,87.8976,283.5308,91.0705,269.0674,0,U,48232,999,25247,.76482623E-3,.296E-5,0
ONEWEB-0165,2021-031Z,2026-07-18T04:20:49.492032,13.14503797,.00024617,87.8967,283.5361,99.8839,260.2568,0,U,48233,999,25243,-.52911651E-3,-.183E-5,0
ONEWEB-0199,2021-031AA,2026-07-18T03:57:59.838624,13.14502284,.00018761,87.8975,283.5268,101.3402,258.7938,0,U,48234,999,25233,.32427523E-3,.133E-5,0
ONEWEB-0203,2021-031AB,2026-07-18T05:33:54.350784,13.14501218,.00020806,87.8973,283.5166,104.3087,255.8274,0,U,48235,999,25235,.70051922E-3,.273E-5,0
ONEWEB-0197,2021-031AC,2026-07-17T12:30:40.375296,13.14502707,.0001972,87.8962,283.6416,92.4161,267.7195,0,U,48236,999,25217,.44988E-3,.18E-5,0
ONEWEB-0194,2021-031AD,2026-07-18T04:27:39.650112,13.14504338,.00019248,87.8967,283.5327,105.4305,254.7037,0,U,48237,999,25243,-.28191083E-3,-.92E-6,0
ONEWEB-0193,2021-031AE,2026-07-18T04:50:31.028064,13.14502694,.00018621,87.8965,283.5197,110.5850,249.5480,0,U,48238,999,25238,-.69750613E-4,-.13E-6,0
ONEWEB-0191,2021-031AF,2026-07-18T05:06:28.166400,13.14506839,.00019202,87.8973,283.5183,95.5906,264.5442,0,U,48239,999,25224,.42807E-3,.172E-5,0
ONEWEB-0195,2021-031AG,2026-07-18T04:33:25.395264,13.14482269,.00022713,87.8971,283.5226,97.4654,262.6734,0,U,48240,999,25222,-.59501303E-2,-.2192E-4,0
ONEWEB-0201,2021-031AH,2026-07-18T04:16:26.942304,13.14502609,.00020041,87.8967,283.5393,90.1024,270.0335,0,U,48241,999,25245,-.32724306E-3,-.109E-5,0
ONEWEB-0207,2021-031AJ,2026-07-18T05:37:18.726528,13.14500890,.00019967,87.8972,283.5150,90.9931,269.1427,0,U,48242,999,25237,.67533822E-3,.263E-5,0
ONEWEB-0208,2021-031AK,2026-07-18T05:11:03.937920,13.14502524,.00023936,87.8965,283.5238,100.4460,259.6940,0,U,48243,999,25238,.53857579E-3,.212E-5,0
ONEWEB-0200,2021-031AL,2026-07-18T04:18:32.966208,13.14502407,.00021264,87.8980,283.5204,97.4519,262.6852,0,U,48244,999,25230,-.34053931E-3,-.113E-5,0
ONEWEB-0217,2021-031AM,2026-07-18T04:41:22.541856,13.14503568,.00024546,87.8974,283.5213,101.1493,258.9913,0,U,48245,999,25225,-.39938706E-3,-.135E-5,0
