ONEWEB-0198             
1 48216U 21031G   26199.20664582  .00000090  00000+0  20874-3 0  9990
2 48216  87.8957 283.5288 0002495  98.3857 261.7555 13.14503177252566
ONEWEB-0189             
1 48217U 21031H   26199.21919594  .00000295  00000+0  76249-3 0  9992
2 48217  87.8968 283.5155 0002428 100.5793 259.5610 13.14502716252300
ONEWEB-0196             
1 48218U 21031J   26199.19699140 -.00000086  00000+0 -26609-3 0  9997
2 48218  87.8965 283.5288 0002204  97.8534 262.2846 13.14502843252301
ONEWEB-0183             
1 48219U 21031K   26199.17161674  .00000006  00000+0 -19604-4 0  9991
2 48219  87.8968 283.5312 0001936  94.5728 265.5623 13.14502539252393
ONEWEB-0185             
1 48220U 21031L   26199.19776363 -.00000132  00000+0 -39138-3 0  9996
2 48220  87.8975 283.5224 0002159  87.8647 272.2730 13.14503781252325
ONEWEB-0187             
1 48221U 21031M   26199.17781608 -.00000128  00000+0 -37911-3 0  9995
2 48221  87.8968 283.5394 0002177  95.5003 264.6375 13.14502663252337
ONEWEB-0192             
1 48222U 21031N   26198.76724428  .00000183  00000+0  45837-3 0  9992
2 48222  87.8967 283.6111 0002121 100.9585 259.1784 13.14502792252190
ONEWEB-0219             
1 48223U 21031P   26199.20331807 -.00000062  00000+0 -20102-3 0  9994
2 48223  87.8971 283.5175 0002266  93.4708 266.6681 13.14504090252459
ONEWEB-0202             
1 48224U 21031Q   26199.18430826 -.00000200  00000+0 -57435-3 0  9996
2 48224  87.8968 283.5341 0002742 105.1047 255.0386 13.14502955252437
ONEWEB-0204             
1 48225U 21031R   26199.21839390  .00000263  00000+0  67582-3 0  9991
2 48225  87.8966 283.5212 0001748  89.9597 270.1733 13.14503197252339
ONEWEB-0205             
1 48226U 21031S   26199.19381496 -.00000113  00000+0 -33815-3 0  9996
2 48226  87.8971 283.5218 0002294  94.7526 265.3866 13.14503216252341
ONEWEB-0206             
1 48227U 21031T   26199.16685705  .00000067  00000+0  14717-3 0  9990
2 48227  87.8972 283.5268 0001924 101.3894 258.7452 13.14502048252293
ONEWEB-0182             
1 48228U 21031U   26199.16208776  .00000094  00000+0  21805-3 0  9996
2 48228  87.8967 283.5345 0001889  94.5069 265.6277 13.14504038252508
ONEWEB-0186             
1 48229U 21031V   26199.17319832 -.00000061  00000+0 -19899-3 0  9990
2 48229  87.8978 283.5255 0002123  96.0182 264.1190 13.14503280252456
ONEWEB-0181             
1 48230U 21031W   26199.22710797  .00000289  00000+0  74475-3 0  9994
2 48230  87.8956 283.5391 0002264  97.8889 262.2498 13.14502298252317
ONEWEB-0188             
1 48231U 21031X   26199.18905495 -.00000130  00000+0 -38413-3 0  9990
2 48231  87.8959 283.5462 0002080  96.9242 263.2124 13.14503001252218
ONEWEB-0220             
1 48232U 21031Y   26199.15261376  .00000296  00000+0  76483-3 0  9991
2 48232  87.8976 283.5308 0002179  91.0705 269.0674 13.14494473252470
ONEWEB-0165             
1 48233U 21031Z   26199.18112838 -.00000183  00000+0 -52912-3 0  9991
2 48233  87.8967 283.5361 0002461  99.8839 260.2568 13.14503797252439
ONEWEB-0199             
1 48234U 21031AA  26199.16527591  .00000133  00000+0  32428-3 0  9999
2 48234  87.8975 283.5268 0001876 101.3402 258.7938 13.14502284252331
ONEWEB-0203             
1 48235U 21031AB  26199.23187906  .00000273  00000+0  70052-3 0  9990
2 48235  87.8973 283.5166 0002080 104.3087 255.8274 13.14501218252356
ONEWEB-0197             
1 48236U 21031AC  26198.52130064  .00000180  00000+0  44988-3 0  9991
2 48236  87.8962 283.6416 0001972  92.4161 267.7195 13.14502707252171
ONEWEB-0194             
1 48237U 21031AD  26199.18587558 -.00000092  00000+0 -28191-3 0  9991
2 48237  87.8967 283.5327 0001924 105.4305 254.7037 13.14504338252431
ONEWEB-0193             
1 48238U 21031AE  26199.20174801 -.00000013  00000+0 -69751-4 0  9999
2 48238  87.8965 283.5197 0001862 110.5850 249.5480 13.14502694252389
ONEWEB-0191             
1 48239U 21031AF  26199.21282600  .00000172  00000+0  42807-3 0  9994
2 48239  87.8973 283.5183 0001920  95.5906 264.5442 13.14506839252248
ONEWEB-0195             
1 48240U 21031AG  26199.18987726 -.00002192  00000+0 -59501-2 0  9997
2 48240  87.8971 283.5226 0002271  97.4654 262.6734 13.14482269252228
ONEWEB-0201             
1 48241U 21031AH  26199.17808961 -.00000109  00000+0 -32724-3 0  9995
2 48241  87.8967 283.5393 0002004  90.1024 270.0335 13.14502609252450
ONEWEB-0207             
1 48242U 21031AJ  26199.23424452  .00000263  00000+0  67534-3 0  9998
2 48242  87.8972 283.5150 0001996  90.9931 269.1427 13.14500890252374
ONEWEB-0208             
1 48243U 21031AK  26199.21601780  .00000212  00000+0  53858-3 0  9996
2 48243  87.8965 283.5238 0002393 100.4460 259.6940 13.14502524252381
ONEWEB-0200             
1 48244U 21031AL  26199.17954822 -.00000113  00000+0 -34054-3 0  9999
2 48244  87.8980 283.5204 0002126  97.4519 262.6852 13.14502407252304
ONEWEB-0217             
1 48245U 21031AM  26199.19539979 -.00000135  00000+0 -39939-3 0  9995
2 48245  87.8974 283.5213 0002454 101.1493 258.9913 13.14503568252255
